[{"OBJECT_NAME":"NEXSAT-1","OBJECT_ID":"2024-024E","EPOCH":"2026-03-09T22:47:24.778176","MEAN_MOTION":15.32166372,"ECCENTRICITY":0.00099795,"INCLINATION":97.3124,"RA_OF_ASC_NODE":144.1918,"ARG_OF_PERICENTER":108.5709,"MEAN_ANOMALY":251.6617,"EPHEMERIS_TYPE":0,"CLASSIFICATION_TYPE":"U","NORAD_CAT_ID":58921,"ELEMENT_SET_NO":999,"REV_AT_EPOCH":11669,"BSTAR":0.00031433612,"MEAN_MOTION_DOT":9.702e-5,"MEAN_MOTION_DDOT":0},{"OBJECT_NAME":"STARLINK-31345","OBJECT_ID":"2024-027L","EPOCH":"2026-03-09T23:13:52.767840","MEAN_MOTION":15.30186465,"ECCENTRICITY":0.00010508,"INCLINATION":53.161,"RA_OF_ASC_NODE":308.1399,"ARG_OF_PERICENTER":101.158,"MEAN_ANOMALY":258.9539,"EPHEMERIS_TYPE":0,"CLASSIFICATION_TYPE":"U","NORAD_CAT_ID":58941,"ELEMENT_SET_NO":999,"REV_AT_EPOCH":11737,"BSTAR":1.9177052e-5,"MEAN_MOTION_DOT":2.09e-6,"MEAN_MOTION_DDOT":0}]
